[{"OBJECT_NAME":"FENGYUN 1C DEB","OBJECT_ID":"1999-025DFJ","EPOCH":"2026-03-06T15:33:53.093952","MEAN_MOTION":13.95654246,"ECCENTRICITY":0.01049894,"INCLINATION":99.3338,"RA_OF_ASC_NODE":118.5668,"ARG_OF_PERICENTER":357.0568,"MEAN_ANOMALY":155.6619,"EPHEMERIS_TYPE":0,"CLASSIFICATION_TYPE":"U","NORAD_CAT_ID":33673,"ELEMENT_SET_NO":999,"REV_AT_EPOCH":91072,"BSTAR":0.00073088825,"MEAN_MOTION_DOT":9.96e-6,"MEAN_MOTION_DDOT":0},{"OBJECT_NAME":"FENGYUN 1C DEB","OBJECT_ID":"1999-025DFK","EPOCH":"2026-03-02T02:29:11.560992","MEAN_MOTION":13.77240941,"ECCENTRICITY":0.02081544,"INCLINATION":98.6001,"RA_OF_ASC_NODE":108.5826,"ARG_OF_PERICENTER":27.6558,"MEAN_ANOMALY":333.5485,"EPHEMERIS_TYPE":0,"CLASSIFICATION_TYPE":"U","NORAD_CAT_ID":33674,"ELEMENT_SET_NO":999,"REV_AT_EPOCH":89457,"BSTAR":0.0015315318,"MEAN_MOTION_DOT":1.743e-5,"MEAN_MOTION_DDOT":0},{"OBJECT_NAME":"FENGYUN 1C DEB","OBJECT_ID":"1999-025DFM","EPOCH":"2026-03-06T12:59:26.647296","MEAN_MOTION":14.35668635,"ECCENTRICITY":0.02039721,"INCLINATION":99.087,"RA_OF_ASC_NODE":99.5993,"ARG_OF_PERICENTER":184.1983,"MEAN_ANOMALY":175.7498,"EPHEMERIS_TYPE":0,"CLASSIFICATION_TYPE":"U","NORAD_CAT_ID":33676,"ELEMENT_SET_NO":999,"REV_AT_EPOCH":66513,"BSTAR":0.00015334145,"MEAN_MOTION_DOT":5.04e-6,"MEAN_MOTION_DDOT":0},{"OBJECT_NAME":"FENGYUN 1C DEB","OBJECT_ID":"1999-025DFT","EPOCH":"2026-03-05T02:02:42.635616","MEAN_MOTION":14.27266612,"ECCENTRICITY":0.00302708,"INCLINATION":99.4121,"RA_OF_ASC_NODE":121.9082,"ARG_OF_PERICENTER":203.2639,"MEAN_ANOMALY":156.717,"EPHEMERIS_TYPE":0,"CLASSIFICATION_TYPE":"U","NORAD_CAT_ID":33682,"ELEMENT_SET_NO":999,"REV_AT_EPOCH":92872,"BSTAR":0.0014652249,"MEAN_MOTION_DOT":3.552e-5,"MEAN_MOTION_DDOT":0},{"OBJECT_NAME":"FENGYUN 1C DEB","OBJECT_ID":"1999-025DFY","EPOCH":"2026-03-03T06:55:21.899424","MEAN_MOTION":15.25006274,"ECCENTRICITY":0.01038057,"INCLINATION":98.9901,"RA_OF_ASC_NODE":88.6648,"ARG_OF_PERICENTER":65.5781,"MEAN_ANOMALY":295.624,"EPHEMERIS_TYPE":0,"CLASSIFICATION_TYPE":"U","NORAD_CAT_ID":33687,"ELEMENT_SET_NO":999,"REV_AT_EPOCH":72733,"BSTAR":0.001670914,"MEAN_MOTION_DOT":0.00048845,"MEAN_MOTION_DDOT":0},{"OBJECT_NAME":"FENGYUN 1C DEB","OBJECT_ID":"1999-025DFZ","EPOCH":"2026-03-06T06:18:23.774688","MEAN_MOTION":14.47656712,"ECCENTRICITY":0.0048608,"INCLINATION":99.3463,"RA_OF_ASC_NODE":180.2252,"ARG_OF_PERICENTER":18.8669,"MEAN_ANOMALY":341.4308,"EPHEMERIS_TYPE":0,"CLASSIFICATION_TYPE":"U","NORAD_CAT_ID":33688,"ELEMENT_SET_NO":999,"REV_AT_EPOCH":92689,"BSTAR":0.0025356929,"MEAN_MOTION_DOT":9.447e-5,"MEAN_MOTION_DDOT":0},{"OBJECT_NAME":"FENGYUN 1C DEB","OBJECT_ID":"1999-025DGA","EPOCH":"2026-03-03T06:56:32.079552","MEAN_MOTION":14.45863811,"ECCENTRICITY":0.00463882,"INCLINATION":99.5631,"RA_OF_ASC_NODE":84.7451,"ARG_OF_PERICENTER":276.2332,"MEAN_ANOMALY":146.0418,"EPHEMERIS_TYPE":0,"CLASSIFICATION_TYPE":"U","NORAD_CAT_ID":33689,"ELEMENT_SET_NO":999,"REV_AT_EPOCH":70694,"BSTAR":0.0011488164,"MEAN_MOTION_DOT":4.081e-5,"MEAN_MOTION_DDOT":0},{"OBJECT_NAME":"FENGYUN 1C DEB","OBJECT_ID":"1999-025DGB","EPOCH":"2026-03-05T05:51:19.541952","MEAN_MOTION":14.53221757,"ECCENTRICITY":0.0033168,"INCLINATION":98.6091,"RA_OF_ASC_NODE":169.7252,"ARG_OF_PERICENTER":157.612,"MEAN_ANOMALY":202.6532,"EPHEMERIS_TYPE":0,"CLASSIFICATION_TYPE":"U","NORAD_CAT_ID":33690,"ELEMENT_SET_NO":999,"REV_AT_EPOCH":94417,"BSTAR":0.0028061,"MEAN_MOTION_DOT":0.00011688,"MEAN_MOTION_DDOT":0},{"OBJECT_NAME":"FENGYUN 1C DEB","OBJECT_ID":"1999-025DGE","EPOCH":"2026-03-05T11:06:14.126400","MEAN_MOTION":13.71597865,"ECCENTRICITY":0.0226247,"INCLINATION":99.2238,"RA_OF_ASC_NODE":243.9935,"ARG_OF_PERICENTER":142.5807,"MEAN_ANOMALY":219.1338,"EPHEMERIS_TYPE":0,"CLASSIFICATION_TYPE":"U","NORAD_CAT_ID":33693,"ELEMENT_SET_NO":999,"REV_AT_EPOCH":89365,"BSTAR":0.0012984,"MEAN_MOTION_DOT":1.364e-5,"MEAN_MOTION_DDOT":0},{"OBJECT_NAME":"FENGYUN 1C DEB","OBJECT_ID":"1999-025DGK","EPOCH":"2026-03-02T20:49:26.682816","MEAN_MOTION":14.56031855,"ECCENTRICITY":0.0137202,"INCLINATION":99.6335,"RA_OF_ASC_NODE":39.1565,"ARG_OF_PERICENTER":340.6819,"MEAN_ANOMALY":18.9202,"EPHEMERIS_TYPE":0,"CLASSIFICATION_TYPE":"U","NORAD_CAT_ID":33698,"ELEMENT_SET_NO":999,"REV_AT_EPOCH":96802,"BSTAR":0.00058578,"MEAN_MOTION_DOT":2.862e-5,"MEAN_MOTION_DDOT":0},{"OBJECT_NAME":"FENGYUN 1C DEB","OBJECT_ID":"1999-025DGN","EPOCH":"2026-03-06T19:46:29.923680","MEAN_MOTION":14.028228,"ECCENTRICITY":0.0133341,"INCLINATION":98.6744,"RA_OF_ASC_NODE":21.1695,"ARG_OF_PERICENTER":313.1352,"MEAN_ANOMALY":45.8726,"EPHEMERIS_TYPE":0,"CLASSIFICATION_TYPE":"U","NORAD_CAT_ID":33701,"ELEMENT_SET_NO":999,"REV_AT_EPOCH":91684,"BSTAR":0.0018908,"MEAN_MOTION_DOT":3.123e-5,"MEAN_MOTION_DDOT":0},{"OBJECT_NAME":"FENGYUN 1C DEB","OBJECT_ID":"1999-025DGX","EPOCH":"2026-03-02T12:13:56.604288","MEAN_MOTION":14.11962083,"ECCENTRICITY":0.00536731,"INCLINATION":98.9754,"RA_OF_ASC_NODE":165.4209,"ARG_OF_PERICENTER":280.6123,"MEAN_ANOMALY":78.9005,"EPHEMERIS_TYPE":0,"CLASSIFICATION_TYPE":"U","NORAD_CAT_ID":33710,"ELEMENT_SET_NO":999,"REV_AT_EPOCH":68782,"BSTAR":0.0010105855,"MEAN_MOTION_DOT":1.828e-5,"MEAN_MOTION_DDOT":0}]
