FENGYUN 1C DEB          
1 33673U 99025DFJ 26065.64853118  .00000996  00000+0  73089-3 0  9995
2 33673  99.3338 118.5668 0104989 357.0568 155.6619 13.95654246910726
FENGYUN 1C DEB          
1 33674U 99025DFK 26061.10360603  .00001743  00000+0  15315-2 0  9993
2 33674  98.6001 108.5826 0208154  27.6558 333.5485 13.77240941894574
FENGYUN 1C DEB          
1 33676U 99025DFM 26065.54128064  .00000504  00000+0  15334-3 0  9996
2 33676  99.0870  99.5993 0203972 184.1983 175.7498 14.35668635665130
FENGYUN 1C DEB          
1 33682U 99025DFT 26064.08521569  .00003552  00000+0  14652-2 0  9995
2 33682  99.4121 121.9082 0030270 203.2639 156.7170 14.27266612928722
FENGYUN 1C DEB          
1 33687U 99025DFY 26062.28844791  .00048845  00000+0  16709-2 0  9994
2 33687  98.9901  88.6648 0103805  65.5781 295.6240 15.25006274727336
FENGYUN 1C DEB          
1 33688U 99025DFZ 26065.26277517  .00009447  00000+0  25357-2 0  9996
2 33688  99.3463 180.2252 0048608  18.8669 341.4308 14.47656712926898
FENGYUN 1C DEB          
1 33689U 99025DGA 26062.28926018  .00004081  00000+0  11488-2 0  9992
2 33689  99.5631  84.7451 0046388 276.2332 146.0418 14.45863811706948
FENGYUN 1C DEB          
1 33690U 99025DGB 26064.24397618  .00011688  00000+0  28061-2 0  9996
2 33690  98.6091 169.7252 0033168 157.6120 202.6532 14.53221757944173
FENGYUN 1C DEB          
1 33693U 99025DGE 26064.46266350  .00001364  00000+0  12984-2 0  9998
2 33693  99.2238 243.9935 0226247 142.5807 219.1338 13.71597865893654
FENGYUN 1C DEB          
1 33698U 99025DGK 26061.86766994  .00002862  00000+0  58578-3 0  9997
2 33698  99.6335  39.1565 0137202 340.6819  18.9202 14.56031855968026
FENGYUN 1C DEB          
1 33701U 99025DGN 26065.82395745  .00003123  00000+0  18908-2 0  9997
2 33701  98.6744  21.1695 0133341 313.1352  45.8726 14.02822800916848
FENGYUN 1C DEB          
1 33710U 99025DGX 26061.50968292  .00001828  00000+0  10106-2 0  9993
2 33710  98.9754 165.4209 0053673 280.6123  78.9005 14.11962083687826
